[{"OBJECT_NAME":"HAWK-11C","OBJECT_ID":"2024-247E","EPOCH":"2026-03-09T12:17:35.407968","MEAN_MOTION":15.2884802,"ECCENTRICITY":0.00059001,"INCLINATION":45.0045,"RA_OF_ASC_NODE":114.8762,"ARG_OF_PERICENTER":329.704,"MEAN_ANOMALY":30.3502,"EPHEMERIS_TYPE":0,"CLASSIFICATION_TYPE":"U","NORAD_CAT_ID":62381,"ELEMENT_SET_NO":999,"REV_AT_EPOCH":6774,"BSTAR":0.00033290115,"MEAN_MOTION_DOT":9.223e-5,"MEAN_MOTION_DDOT":0},{"OBJECT_NAME":"STARLINK-35118","OBJECT_ID":"2025-281L","EPOCH":"2026-03-08T04:20:25.795968","MEAN_MOTION":15.27631687,"ECCENTRICITY":0.00016019,"INCLINATION":43.0039,"RA_OF_ASC_NODE":352.0942,"ARG_OF_PERICENTER":279.6952,"MEAN_ANOMALY":80.3719,"EPHEMERIS_TYPE":0,"CLASSIFICATION_TYPE":"U","NORAD_CAT_ID":66858,"ELEMENT_SET_NO":999,"REV_AT_EPOCH":1595,"BSTAR":0.0014204283,"MEAN_MOTION_DOT":0.00039094,"MEAN_MOTION_DDOT":0}]
